      2.10          N: GNSS NAV DATA                        RINEX VERSION / TYPE
fic2rin                                 04/02/2021 00:17:22 PGM / RUN BY / DATE
                                                            END OF HEADER
 7 21  4  1  6  0  0.0 1.082513481379e-04 1.193711796077e-11 0.000000000000e+00
    3.800000000000e+01 7.459375000000e+01 4.375896559370e-09-1.543403917220e+00
    3.691762685776e-06 1.466479036026e-02 1.125782728195e-05 5.153594593048e+03
    3.672000000000e+05 3.632158041000e-07 7.041626852594e-01-1.266598701477e-07
    9.521665029739e-01 1.579375000000e+02-2.343813972483e+00-7.742465361903e-09
   -2.367955777720e-10 1.000000000000e+00 2.151000000000e+03 0.000000000000e+00
    2.400000000000e+00 0.000000000000e+00-1.117587089539e-08 3.800000000000e+01
    3.600000000000e+05 4.000000000000e+00
11 21  4  1  6  0  0.0 1.714704558253e-05 1.068656274583e-11 0.000000000000e+00
    4.400000000000e+01-1.020000000000e+02 5.404867991589e-09-1.711771337439e+00
   -5.070120096207e-06 1.530030253343e-02 8.504837751389e-06 5.154086156845e+03
    3.672000000000e+05-3.501772880554e-07-2.931020117004e+00 2.104789018631e-07
    9.146436300071e-01 1.926875000000e+02 2.089470278893e+00-8.601786870378e-09
   -4.500187450871e-11 1.000000000000e+00 2.151000000000e+03 0.000000000000e+00
    2.400000000000e+00 6.300000000000e+01-1.257285475731e-08 4.400000000000e+01
    3.600000000000e+05 4.000000000000e+00
32 21  4  1  6  0  0.0 2.191122621298e-05 3.410605131648e-13 0.000000000000e+00
    9.000000000000e+00-3.231250000000e+01 4.954134931034e-09 1.965608617066e+00
   -1.749023795128e-06 4.787059850059e-03 7.316470146179e-06 5.153648786545e+03
    3.672000000000e+05-1.378357410431e-07-3.583585090589e-01-3.725290298462e-08
    9.574659676036e-01 2.395937500000e+02-2.399855735236e+00-8.212842097839e-09
   -4.657336853917e-10 1.000000000000e+00 2.151000000000e+03 0.000000000000e+00
    2.400000000000e+00 0.000000000000e+00 4.656612873077e-10 9.000000000000e+00
    3.600000000000e+05 4.000000000000e+00
21 21  4  1  6  0  0.0 1.076026819646e-04 2.955857780762e-12 0.000000000000e+00
    7.000000000000e+00-7.775000000000e+01 4.361967407737e-09 1.417841339560e+00
   -4.405155777931e-06 2.420311002061e-02 9.901821613312e-06 5.153709796906e+03
    3.672000000000e+05 4.768371582031e-07-2.518779872995e+00-4.079192876816e-07
    9.567828623952e-01 1.867187500000e+02-1.162269878806e+00-7.874256565821e-09
    1.767930784271e-10 1.000000000000e+00 2.151000000000e+03 0.000000000000e+00
    2.400000000000e+00 0.000000000000e+00-1.024454832077e-08 7.000000000000e+00
    3.600000000000e+05 4.000000000000e+00
29 21  4  1  6  0  0.0-3.221258521080e-04-6.707523425575e-12 0.000000000000e+00
    6.500000000000e+01-8.896875000000e+01 4.032310819074e-09 1.400779345019e+00
   -4.602596163750e-06 1.672705053352e-03 4.075467586517e-06 5.153664751053e+03
    3.672000000000e+05 4.284083843231e-08 2.862735279158e+00 4.097819328308e-08
    9.845196297201e-01 3.139375000000e+02 2.108749965078e+00-8.152482440760e-09
   -1.982225424788e-10 1.000000000000e+00 2.151000000000e+03 0.000000000000e+00
    2.400000000000e+00 0.000000000000e+00-1.024454832077e-08 6.500000000000e+01
    3.600000000000e+05 4.000000000000e+00
15 21  4  1  6  0  0.0-1.592296175659e-04 2.614797267597e-12 0.000000000000e+00
    4.200000000000e+01-3.165625000000e+01 5.831671483954e-09 2.969066894582e-01
   -1.376494765282e-06 1.308778824750e-02 6.340444087982e-06 5.153578941345e+03
    3.672000000000e+05-1.005828380585e-07-4.656904078862e-01 1.508742570877e-07
    9.290287360845e-01 2.393750000000e+02 9.742021234745e-01-8.855368861658e-09
   -4.835915721015e-10 1.000000000000e+00 2.151000000000e+03 0.000000000000e+00
    2.400000000000e+00 0.000000000000e+00-1.071020960808e-08 4.200000000000e+01
    3.600000000000e+05 4.000000000000e+00
31 21  4  1  6  0  0.0-1.089791767299e-04-2.273736754432e-12 0.000000000000e+00
    5.600000000000e+01 6.331250000000e+01 4.324465845646e-09-2.081483710243e+00
    3.229826688766e-06 9.955470100977e-03 1.199170947075e-05 5.153768255234e+03
    3.672000000000e+05-4.284083843231e-08 7.209831461734e-01-8.754432201385e-08
    9.564833416218e-01 1.466875000000e+02 2.550821190456e-01-7.829969006781e-09
   -1.535778257043e-10 1.000000000000e+00 2.151000000000e+03 0.000000000000e+00
    2.400000000000e+00 0.000000000000e+00-1.303851604462e-08 5.600000000000e+01
    3.600000000000e+05 4.000000000000e+00
22 21  4  1  6  0  0.0-6.480002775788e-04 8.526512829121e-12 0.000000000000e+00
    2.800000000000e+01 1.968750000000e+01 5.594875906182e-09 2.425030804267e-01
    1.009553670883e-06 7.067926344462e-03 7.633119821548e-06 5.153565671921e+03
    3.672000000000e+05-6.332993507385e-08-1.495896853651e+00-8.568167686462e-08
    9.338433706447e-01 2.223437500000e+02-1.008383123936e+00-8.657503476913e-09
    5.200216609895e-10 1.000000000000e+00 2.151000000000e+03 0.000000000000e+00
    2.400000000000e+00 0.000000000000e+00-1.816079020500e-08 2.800000000000e+01
    3.600000000000e+05 4.000000000000e+00
24 21  4  1  6  0  0.0 3.543682396412e-07-4.547473508865e-13 0.000000000000e+00
    3.000000000000e+01 5.940625000000e+01 4.914847580272e-09-5.913719441923e-01
    3.013759851456e-06 1.101832895074e-02 1.204572618008e-05 5.153746086121e+03
    3.672000000000e+05 7.264316082001e-08 6.268364109612e-01 1.490116119385e-07
    9.355882603321e-01 1.330312500000e+02 7.367128363496e-01-8.303560162325e-09
   -4.410898017322e-10 1.000000000000e+00 2.151000000000e+03 0.000000000000e+00
    2.400000000000e+00 0.000000000000e+00 2.793967723846e-09 3.000000000000e+01
    3.600000000000e+05 4.000000000000e+00
25 21  4  1  6  0  0.0 1.099910587072e-04 7.389644451905e-12 0.000000000000e+00
    2.100000000000e+01 1.128125000000e+02 4.461257257843e-09-2.597548337286e+00
    5.833804607391e-06 9.934287401848e-03 4.347413778305e-06 5.153652950287e+03
    3.672000000000e+05 4.842877388000e-08 1.741625311491e+00-1.043081283569e-07
    9.613218041918e-01 2.954375000000e+02 9.569453838163e-01-8.196055684332e-09
    3.267993267894e-10 1.000000000000e+00 2.151000000000e+03 0.000000000000e+00
    2.400000000000e+00 0.000000000000e+00 5.587935447693e-09 2.100000000000e+01
    3.600000000000e+05 4.000000000000e+00
20 21  4  1  6  0  0.0 5.236268043518e-04-3.410605131648e-13 0.000000000000e+00
    3.300000000000e+01 1.146875000000e+01 5.395939048234e-09-1.416345242499e+00
    5.848705768585e-07 6.028430187143e-03 7.929280400276e-06 5.151691303253e+03
    3.672000000000e+05 1.024454832077e-07-1.542394530077e+00-7.450580596924e-08
    9.371526083735e-01 2.147812500000e+02 3.016865672793e+00-8.471067139663e-09
    6.428839215530e-10 1.000000000000e+00 2.151000000000e+03 0.000000000000e+00
    2.400000000000e+00 0.000000000000e+00-8.381903171539e-09 3.300000000000e+01
    3.600000000000e+05 4.000000000000e+00
17 21  4  1  6  0  0.0 4.191519692540e-04 6.366462912410e-12 0.000000000000e+00
    3.200000000000e+01-9.346875000000e+01 4.148387082688e-09 1.202285986963e+00
   -4.947185516357e-06 1.337730698287e-02 4.606321454048e-06 5.153572652817e+03
    3.672000000000e+05-2.626329660416e-07 2.850388032594e+00-2.700835466385e-07
    9.826811249790e-01 3.008437500000e+02-1.571332939776e+00-8.283559329210e-09
   -1.917937032633e-10 1.000000000000e+00 2.151000000000e+03 0.000000000000e+00
    2.400000000000e+00 0.000000000000e+00-1.117587089539e-08 3.200000000000e+01
    3.600000000000e+05 4.000000000000e+00
16 21  4  1  6  0  0.0-3.027939237654e-04-5.911715561524e-12 0.000000000000e+00
    9.400000000000e+01 8.793750000000e+01 4.331251842596e-09 2.152212992036e+00
    4.408881068230e-06 1.226963207591e-02 4.004687070847e-06 5.153673288345e+03
    3.672000000000e+05-2.365559339523e-07 1.833233124581e+00-1.173466444016e-07
    9.740730560641e-01 3.110000000000e+02 6.680626742119e-01-8.207127574092e-09
    1.850077063136e-10 1.000000000000e+00 2.151000000000e+03 0.000000000000e+00
    2.400000000000e+00 0.000000000000e+00-1.024454832077e-08 9.400000000000e+01
    3.600000000000e+05 4.000000000000e+00
12 21  4  1  6  0  0.0-2.182880416512e-05-5.002220859751e-12 0.000000000000e+00
    9.600000000000e+01 1.058437500000e+02 4.309108063076e-09-2.269237511651e+00
    5.457550287247e-06 8.491326472722e-03 3.326684236526e-06 5.153769578934e+03
    3.672000000000e+05 9.313225746155e-08 1.814452989810e+00-1.173466444016e-07
    9.739736244480e-01 3.223125000000e+02 1.191826848304e+00-8.140339077797e-09
    2.828689254833e-10 1.000000000000e+00 2.151000000000e+03 0.000000000000e+00
    2.400000000000e+00 0.000000000000e+00-1.257285475731e-08 9.600000000000e+01
    3.600000000000e+05 4.000000000000e+00
27 21  4  1  6  0  0.0-1.046168617904e-04-6.934897101019e-12 0.000000000000e+00
    9.500000000000e+01-7.121875000000e+01 4.285535652619e-09 1.221561890042e+00
   -3.794208168983e-06 9.329846245237e-03 3.833323717117e-06 5.153680850983e+03
    3.672000000000e+05-2.980232238770e-08 2.790058745146e+00 7.636845111847e-08
    9.764904652846e-01 3.144375000000e+02 5.983650978395e-01-8.300345742717e-09
   -2.817974522807e-10 1.000000000000e+00 2.151000000000e+03 0.000000000000e+00
    2.400000000000e+00 0.000000000000e+00 1.862645149231e-09 9.500000000000e+01
    3.600000000000e+05 4.000000000000e+00
30 21  4  1  6  0  0.0-4.066093824804e-04-5.343281372916e-12 0.000000000000e+00
    7.800000000000e+01 7.468750000000e+01 4.735197239972e-09-1.662115283785e+00
    3.704801201820e-06 5.018660682254e-03 1.121684908867e-05 5.153730030060e+03
    3.672000000000e+05 5.587935447693e-09 7.221653595316e-01-1.024454832077e-07
    9.373787652681e-01 1.515312500000e+02-2.820557807554e+00-7.994618722245e-09
   -2.121516941125e-10 1.000000000000e+00 2.151000000000e+03 0.000000000000e+00
    2.400000000000e+00 0.000000000000e+00 3.725290298462e-09 7.800000000000e+01
    3.600000000000e+05 4.000000000000e+00
